OBJECT_NAME,OBJECT_ID,EPOCH,MEAN_MOTION,ECCENTRICITY,INCLINATION,RA_OF_ASC_NODE,ARG_OF_PERICENTER,MEAN_ANOMALY,EPHEMERIS_TYPE,CLASSIFICATION_TYPE,NORAD_CAT_ID,ELEMENT_SET_NO,REV_AT_EPOCH,BSTAR,MEAN_MOTION_DOT,MEAN_MOTION_DDOT
KENT RIDGE 1,2015-077B,2026-06-18T14:29:54.580416,15.23139502,.0008246,14.9794,255.4525,258.6029,101.3367,0,U,41167,999,58131,.10652E-3,.3355E-4,0
DAMPE,2015-078A,2026-06-18T17:41:37.496256,15.30788680,.0013796,97.4552,175.2119,72.1834,288.0910,0,U,41173,999,58478,.38988E-4,.1085E-4,0
GSAT0209 (GALILEO 12),2015-079A,2026-06-18T05:05:12.477408,1.70473656,.000525,55.8280,101.2339,345.1239,14.8344,0,U,41174,999,6479,0,-.11E-6,0
GSAT0208 (GALILEO 11),2015-079B,2026-06-16T02:03:40.443264,1.70473579,.00048641,55.8253,101.2890,343.1626,16.7832,0,U,41175,999,6517,0,-.13E-6,0
ORBCOMM FM110,2015-081D,2026-06-17T22:13:04.647936,14.58881675,.00024948,47.0033,357.9511,80.4208,279.6960,0,U,41182,999,55773,.15044486E-3,.54E-5,0
ORBCOMM FM118,2015-081E,2026-06-18T13:49:58.609056,14.58880676,.0002519,47.0047,355.2056,35.8519,324.2536,0,U,41183,999,55793,.46386E-3,.2023E-4,0
ORBCOMM FM112,2015-081F,2026-06-18T07:22:02.315136,14.58905836,.0003795,46.9989,264.9520,222.4136,137.6457,0,U,41184,999,55911,.12796E-3,.434E-5,0
ORBCOMM FM113,2015-081G,2026-06-18T16:40:09.418080,14.58859727,.0002335,47.0007,263.4964,229.6651,130.4031,0,U,41185,999,55915,.87553E-4,.243E-5,0
ORBCOMM FM108,2015-081J,2026-06-18T00:58:24.502368,14.58870752,.00029879,47.0030,178.1625,224.9174,135.1471,0,U,41187,999,56020,.90814462E-4,.258E-5,0
ORBCOMM FM117,2015-081K,2026-06-18T10:00:28.528704,14.58865684,.0003526,46.9993,175.0163,229.3841,130.6739,0,U,41188,999,56030,.70744E-4,.163E-5,0
ORBCOMM FM116,2015-081L,2026-06-18T12:49:32.384640,14.58885082,.0000528,47.0018,264.2516,80.7304,279.3642,0,U,41189,999,55913,.12864E-3,.437E-5,0
EXPRESS-AMU1,2015-082A,2026-06-18T14:48:19.219968,1.00274099,.0002807,0.0178,328.7180,126.4192,69.9184,0,U,41191,999,3828,0,.149E-5,0
GAOFEN-4,2015-083A,2026-06-18T15:08:05.976672,1.00268207,.0004364,0.3622,83.8351,113.5197,42.2100,0,U,41194,999,3854,0,-.341E-5,0
BELINTERSAT-1,2016-001A,2026-06-18T13:09:59.616288,1.00273297,.0002336,0.0313,254.4433,151.5712,109.7381,0,U,41238,999,3825,0,.101E-5,0
JASON-3,2016-002A,2026-06-18T15:12:31.457952,12.87628064,.0008502,66.0404,122.7938,272.7432,87.2614,0,U,41240,999,48743,.54088E-4,-.49E-6,0
IRNSS-1E,2016-003A,2026-06-18T16:18:54.434016,1.00277367,.0018966,33.2374,59.7289,179.1127,24.5588,0,U,41241,999,3809,0,-.318E-5,0
EUTELSAT 9B,2016-005A,2026-06-18T12:57:45.789120,1.00271996,.0001665,0.0845,76.0787,331.8937,62.2147,0,U,41310,999,3813,0,.55E-6,0
NAVSTAR 76 (USA 266),2016-007A,2026-06-13T21:04:02.010720,2.00551861,.00961206,55.5220,89.5909,247.4205,111.5460,0,U,41328,999,7577,0,-.28E-6,0
COSMOS 2514 [GLONASS-M],2016-008A,2026-06-18T16:37:50.426400,2.13102579,.0011344,65.0207,312.9548,198.1525,161.7970,0,U,41330,999,8065,0,-.56E-6,0
SENTINEL-3A,2016-011A,2026-06-18T16:32:33.752256,14.26732755,.0001411,98.6250,237.0517,101.1895,258.9444,0,U,41335,999,53827,.56553E-4,.93E-6,0
HORYU-4,2016-012D,2026-06-18T01:30:03.446496,15.96640257,.00059419,30.9844,72.5998,278.9863,81.0127,0,U,41340,999,57095,.98166813E-3,.440932E-2,.72867516E-4
SES-9,2016-013A,2026-06-18T14:51:17.265312,1.00265753,.0002065,0.0108,339.1503,113.5785,145.2399,0,U,41380,999,3745,0,-.351E-5,0
EUTELSAT 65 WEST A,2016-014A,2026-06-18T14:19:21.996768,1.00273164,.0002291,0.0520,334.0815,107.8738,334.4929,0,U,41382,999,3753,0,-.283E-5,0
IRNSS-1F,2016-015A,2026-06-18T13:04:22.652832,1.00268069,.0017448,5.3523,96.7502,185.0880,213.4858,0,U,41384,999,3768,0,.15E-5,0
COSMOS 2515,2016-020A,2026-06-18T17:05:04.334208,15.07959389,.0022283,97.9750,185.2446,299.6462,60.2545,0,U,41394,999,56064,.11963E-3,.1778E-4,0
BEIDOU-2 IGSO-6,2016-021A,2026-06-16T02:58:21.700128,1.00259474,.00571844,60.2243,38.0497,231.4868,132.3999,0,U,41434,999,3747,0,-.15E-5,0
IRNSS-1G,2016-027A,2026-06-18T16:32:08.570976,1.00265368,.0007549,5.2016,97.4387,355.5290,191.4476,0,U,41469,999,3719,0,-.343E-5,0
JCSAT-2B,2016-028A,2026-06-18T15:03:38.612736,1.00270104,.000084,0.0183,4.0294,79.8703,202.8702,0,U,41471,999,3714,0,-.172E-5,0
YAOGAN-30 01,2016-029A,2026-06-18T17:09:46.973664,14.76271748,.0014383,97.9005,219.5798,224.9919,135.0126,0,U,41473,999,54389,.13585E-3,.892E-5,0
GSAT0211 (GALILEO 14),2016-030A,2026-06-18T13:20:53.363616,1.70473904,.0002964,55.0948,221.6573,322.3705,37.6930,0,U,41549,999,6269,0,.29E-6,0
GSAT0210 (GALILEO 13),2016-030B,2026-06-18T05:26:40.812864,1.70473788,.0005022,55.0944,221.6643,247.0655,112.9679,0,U,41550,999,6268,0,.31E-6,0
